STARLINK-36687          
1 67711U 26025U   26059.47248397  .00131631  00000+0  67534-3 0  9995
2 67711  97.2862 170.6611 0001067  71.3452 288.7932 15.80890273  4507
STARLINK-36705          
1 67712U 26025V   26059.50001156  .00009078  00000+0  61701-4 0  9990
2 67712  97.2872 170.6756 0001058  93.7322  33.3764 15.75178178  4439
STARLINK-36708          
1 67713U 26025W   26059.46172173  .00155188  00000+0  79301-3 0  9992
2 67713  97.2860 170.6742 0001261  74.7431 285.3977 15.80915032  4493
STARLINK-36702          
1 67714U 26025X   26059.46362714  .00140636  00000+0  72063-3 0  9995
2 67714  97.2861 170.6717 0001590 102.1647 257.9800 15.80893080  4495
STARLINK-36718          
1 67715U 26025Y   26059.45745814  .00104632  00000+0  53886-3 0  9999
2 67715  97.2859 170.6805 0001252  96.6348 263.5063 15.80881286  4490
STARLINK-36715          
1 67716U 26025Z   26059.45952138  .00102693  00000+0  52904-3 0  9994
2 67716  97.2858 170.6774 0001475 108.0042 252.1387 15.80879599  4498
STARLINK-36385          
1 67717U 26025AA  26059.46577714  .00128230  00000+0  65833-3 0  9999
2 67717  97.2860 170.6694 0001366 107.8459 252.2959 15.80884611  4498
CZ-2F DEB               
1 67718U 26024E   26058.50732833  .00191604  00000+0  35886-2 0  9997
2 67718  50.3169  68.5830 0246509 240.0171 117.6115 15.20915897  3086
CZ-2F DEB               
1 67719U 26024F   26059.43509473  .00131590  00000+0  32434-2 0  9997
2 67719  49.7920  66.3811 0321343 234.3930 122.6683 15.00684089  2852
CZ-2F DEB               
1 67720U 26024G   26059.47293167  .00130761  00000+0  33104-2 0  9997
2 67720  49.8308  66.6513 0331934 230.8081 126.2948 14.98037182  3174
STARLINK-36772          
1 67721U 26026A   26042.75317130 -.00000725  22934-5  00000+0 0  9999
2 67721  97.2800  95.5280 0003400 259.0800  81.2200 16.07750770    15
STARLINK-36796          
1 67722U 26026B   26059.44397067  .00072288  00000+0  37474-3 0  9996
2 67722  97.2860 113.6362 0001416  86.5515 273.5915 15.80831511  2672
